<?xml version="1.0" encoding="UTF-8"?>
<ndm xmlns:xsi="http://www.w3.org/2001/XMLSchema-instance" xsi:noNamespaceSchemaLocation="https://sanaregistry.org/r/ndmxml_unqualified/ndmxml-2.0.0-master-2.0.xsd">
<omm id="CCSDS_OMM_VERS" version="2.0">
<header><CREATION_DATE/><ORIGINATOR/></header><body><segment><metadata><OBJECT_NAME>ORBCOMM FM33</OBJECT_NAME><OBJECT_ID>1999-065D</OBJECT_ID><CENTER_NAME>EARTH</CENTER_NAME><REF_FRAME>TEME</REF_FRAME><TIME_SYSTEM>UTC</TIME_SYSTEM><MEAN_ELEMENT_THEORY>SGP4</MEAN_ELEMENT_THEORY></metadata><data><meanElements><EPOCH>2025-05-10T20:04:18.626880</EPOCH><MEAN_MOTION>14.39927289</MEAN_MOTION><ECCENTRICITY>.0010453</ECCENTRICITY><INCLINATION>45.0273</INCLINATION><RA_OF_ASC_NODE>176.5265</RA_OF_ASC_NODE><ARG_OF_PERICENTER>240.2161</ARG_OF_PERICENTER><MEAN_ANOMALY>119.7650</MEAN_ANOMALY></meanElements><tleParameters><EPHEMERIS_TYPE>0</EPHEMERIS_TYPE><CLASSIFICATION_TYPE>U</CLASSIFICATION_TYPE><NORAD_CAT_ID>25983</NORAD_CAT_ID><ELEMENT_SET_NO>999</ELEMENT_SET_NO><REV_AT_EPOCH>33068</REV_AT_EPOCH><BSTAR>.3355E-3</BSTAR><MEAN_MOTION_DOT>.923E-5</MEAN_MOTION_DOT><MEAN_MOTION_DDOT>0</MEAN_MOTION_DDOT></tleParameters></data></segment></body></omm>
<omm id="CCSDS_OMM_VERS" version="2.0">
<header><CREATION_DATE/><ORIGINATOR/></header><body><segment><metadata><OBJECT_NAME>ORBCOMM FM36</OBJECT_NAME><OBJECT_ID>1999-065E</OBJECT_ID><CENTER_NAME>EARTH</CENTER_NAME><REF_FRAME>TEME</REF_FRAME><TIME_SYSTEM>UTC</TIME_SYSTEM><MEAN_ELEMENT_THEORY>SGP4</MEAN_ELEMENT_THEORY></metadata><data><meanElements><EPOCH>2025-05-11T12:23:52.561248</EPOCH><MEAN_MOTION>14.38041295</MEAN_MOTION><ECCENTRICITY>.0003514</ECCENTRICITY><INCLINATION>45.0392</INCLINATION><RA_OF_ASC_NODE>264.6665</RA_OF_ASC_NODE><ARG_OF_PERICENTER>144.3719</ARG_OF_PERICENTER><MEAN_ANOMALY>215.7365</MEAN_ANOMALY></meanElements><tleParameters><EPHEMERIS_TYPE>0</EPHEMERIS_TYPE><CLASSIFICATION_TYPE>U</CLASSIFICATION_TYPE><NORAD_CAT_ID>25984</NORAD_CAT_ID><ELEMENT_SET_NO>999</ELEMENT_SET_NO><REV_AT_EPOCH>32973</REV_AT_EPOCH><BSTAR>.49059E-3</BSTAR><MEAN_MOTION_DOT>.1356E-4</MEAN_MOTION_DOT><MEAN_MOTION_DDOT>0</MEAN_MOTION_DDOT></tleParameters></data></segment></body></omm>
<omm id="CCSDS_OMM_VERS" version="2.0">
<header><CREATION_DATE/><ORIGINATOR/></header><body><segment><metadata><OBJECT_NAME>ORBCOMM FM35</OBJECT_NAME><OBJECT_ID>1999-065F</OBJECT_ID><CENTER_NAME>EARTH</CENTER_NAME><REF_FRAME>TEME</REF_FRAME><TIME_SYSTEM>UTC</TIME_SYSTEM><MEAN_ELEMENT_THEORY>SGP4</MEAN_ELEMENT_THEORY></metadata><data><meanElements><EPOCH>2025-05-10T16:55:45.703776</EPOCH><MEAN_MOTION>14.37022371</MEAN_MOTION><ECCENTRICITY>.0004844</ECCENTRICITY><INCLINATION>45.0398</INCLINATION><RA_OF_ASC_NODE>273.2482</RA_OF_ASC_NODE><ARG_OF_PERICENTER>205.7386</ARG_OF_PERICENTER><MEAN_ANOMALY>154.3222</MEAN_ANOMALY></meanElements><tleParameters><EPHEMERIS_TYPE>0</EPHEMERIS_TYPE><CLASSIFICATION_TYPE>U</CLASSIFICATION_TYPE><NORAD_CAT_ID>25985</NORAD_CAT_ID><ELEMENT_SET_NO>999</ELEMENT_SET_NO><REV_AT_EPOCH>32939</REV_AT_EPOCH><BSTAR>.42914E-3</BSTAR><MEAN_MOTION_DOT>.1142E-4</MEAN_MOTION_DOT><MEAN_MOTION_DDOT>0</MEAN_MOTION_DDOT></tleParameters></data></segment></body></omm>
<omm id="CCSDS_OMM_VERS" version="2.0">
<header><CREATION_DATE/><ORIGINATOR/></header><body><segment><metadata><OBJECT_NAME>ORBCOMM FM34</OBJECT_NAME><OBJECT_ID>1999-065G</OBJECT_ID><CENTER_NAME>EARTH</CENTER_NAME><REF_FRAME>TEME</REF_FRAME><TIME_SYSTEM>UTC</TIME_SYSTEM><MEAN_ELEMENT_THEORY>SGP4</MEAN_ELEMENT_THEORY></metadata><data><meanElements><EPOCH>2025-05-10T16:07:50.875968</EPOCH><MEAN_MOTION>14.37053108</MEAN_MOTION><ECCENTRICITY>.0004833</ECCENTRICITY><INCLINATION>45.0392</INCLINATION><RA_OF_ASC_NODE>273.8838</RA_OF_ASC_NODE><ARG_OF_PERICENTER>166.1016</ARG_OF_PERICENTER><MEAN_ANOMALY>193.9966</MEAN_ANOMALY></meanElements><tleParameters><EPHEMERIS_TYPE>0</EPHEMERIS_TYPE><CLASSIFICATION_TYPE>U</CLASSIFICATION_TYPE><NORAD_CAT_ID>25986</NORAD_CAT_ID><ELEMENT_SET_NO>999</ELEMENT_SET_NO><REV_AT_EPOCH>32950</REV_AT_EPOCH><BSTAR>.39314E-3</BSTAR><MEAN_MOTION_DOT>.1035E-4</MEAN_MOTION_DOT><MEAN_MOTION_DDOT>0</MEAN_MOTION_DDOT></tleParameters></data></segment></body></omm>
<omm id="CCSDS_OMM_VERS" version="2.0">
<header><CREATION_DATE/><ORIGINATOR/></header><body><segment><metadata><OBJECT_NAME>ORBCOMM FM38</OBJECT_NAME><OBJECT_ID>2008-031A</OBJECT_ID><CENTER_NAME>EARTH</CENTER_NAME><REF_FRAME>TEME</REF_FRAME><TIME_SYSTEM>UTC</TIME_SYSTEM><MEAN_ELEMENT_THEORY>SGP4</MEAN_ELEMENT_THEORY></metadata><data><meanElements><EPOCH>2025-05-11T04:17:47.771232</EPOCH><MEAN_MOTION>14.81181422</MEAN_MOTION><ECCENTRICITY>.000546</ECCENTRICITY><INCLINATION>48.4378</INCLINATION><RA_OF_ASC_NODE>131.5949</RA_OF_ASC_NODE><ARG_OF_PERICENTER>246.1805</ARG_OF_PERICENTER><MEAN_ANOMALY>113.8538</MEAN_ANOMALY></meanElements><tleParameters><EPHEMERIS_TYPE>0</EPHEMERIS_TYPE><CLASSIFICATION_TYPE>U</CLASSIFICATION_TYPE><NORAD_CAT_ID>33060</NORAD_CAT_ID><ELEMENT_SET_NO>999</ELEMENT_SET_NO><REV_AT_EPOCH>90925</REV_AT_EPOCH><BSTAR>.25291E-3</BSTAR><MEAN_MOTION_DOT>.1774E-4</MEAN_MOTION_DOT><MEAN_MOTION_DDOT>0</MEAN_MOTION_DDOT></tleParameters></data></segment></body></omm>
<omm id="CCSDS_OMM_VERS" version="2.0">
<header><CREATION_DATE/><ORIGINATOR/></header><body><segment><metadata><OBJECT_NAME>ORBCOMM FM41</OBJECT_NAME><OBJECT_ID>2008-031B</OBJECT_ID><CENTER_NAME>EARTH</CENTER_NAME><REF_FRAME>TEME</REF_FRAME><TIME_SYSTEM>UTC</TIME_SYSTEM><MEAN_ELEMENT_THEORY>SGP4</MEAN_ELEMENT_THEORY></metadata><data><meanElements><EPOCH>2025-05-11T12:52:31.345824</EPOCH><MEAN_MOTION>14.80771415</MEAN_MOTION><ECCENTRICITY>.000457</ECCENTRICITY><INCLINATION>48.4428</INCLINATION><RA_OF_ASC_NODE>137.5448</RA_OF_ASC_NODE><ARG_OF_PERICENTER>234.0396</ARG_OF_PERICENTER><MEAN_ANOMALY>270.9183</MEAN_ANOMALY></meanElements><tleParameters><EPHEMERIS_TYPE>0</EPHEMERIS_TYPE><CLASSIFICATION_TYPE>U</CLASSIFICATION_TYPE><NORAD_CAT_ID>33061</NORAD_CAT_ID><ELEMENT_SET_NO>999</ELEMENT_SET_NO><REV_AT_EPOCH>90924</REV_AT_EPOCH><BSTAR>.24709E-3</BSTAR><MEAN_MOTION_DOT>.171E-4</MEAN_MOTION_DOT><MEAN_MOTION_DDOT>0</MEAN_MOTION_DDOT></tleParameters></data></segment></body></omm>
<omm id="CCSDS_OMM_VERS" version="2.0">
<header><CREATION_DATE/><ORIGINATOR/></header><body><segment><metadata><OBJECT_NAME>ORBCOMM FM29</OBJECT_NAME><OBJECT_ID>2008-031C</OBJECT_ID><CENTER_NAME>EARTH</CENTER_NAME><REF_FRAME>TEME</REF_FRAME><TIME_SYSTEM>UTC</TIME_SYSTEM><MEAN_ELEMENT_THEORY>SGP4</MEAN_ELEMENT_THEORY></metadata><data><meanElements><EPOCH>2025-05-10T18:51:31.590720</EPOCH><MEAN_MOTION>14.80866633</MEAN_MOTION><ECCENTRICITY>.0006241</ECCENTRICITY><INCLINATION>48.4380</INCLINATION><RA_OF_ASC_NODE>148.9740</RA_OF_ASC_NODE><ARG_OF_PERICENTER>228.5157</ARG_OF_PERICENTER><MEAN_ANOMALY>301.8652</MEAN_ANOMALY></meanElements><tleParameters><EPHEMERIS_TYPE>0</EPHEMERIS_TYPE><CLASSIFICATION_TYPE>U</CLASSIFICATION_TYPE><NORAD_CAT_ID>33062</NORAD_CAT_ID><ELEMENT_SET_NO>999</ELEMENT_SET_NO><REV_AT_EPOCH>90860</REV_AT_EPOCH><BSTAR>.24302E-3</BSTAR><MEAN_MOTION_DOT>.1683E-4</MEAN_MOTION_DOT><MEAN_MOTION_DDOT>0</MEAN_MOTION_DDOT></tleParameters></data></segment></body></omm>
<omm id="CCSDS_OMM_VERS" version="2.0">
<header><CREATION_DATE/><ORIGINATOR/></header><body><segment><metadata><OBJECT_NAME>ORBCOMM FM39</OBJECT_NAME><OBJECT_ID>2008-031D</OBJECT_ID><CENTER_NAME>EARTH</CENTER_NAME><REF_FRAME>TEME</REF_FRAME><TIME_SYSTEM>UTC</TIME_SYSTEM><MEAN_ELEMENT_THEORY>SGP4</MEAN_ELEMENT_THEORY></metadata><data><meanElements><EPOCH>2025-05-11T11:47:17.967552</EPOCH><MEAN_MOTION>14.79445313</MEAN_MOTION><ECCENTRICITY>.0006948</ECCENTRICITY><INCLINATION>48.4394</INCLINATION><RA_OF_ASC_NODE>169.4875</RA_OF_ASC_NODE><ARG_OF_PERICENTER>203.8042</ARG_OF_PERICENTER><MEAN_ANOMALY>156.2552</MEAN_ANOMALY></meanElements><tleParameters><EPHEMERIS_TYPE>0</EPHEMERIS_TYPE><CLASSIFICATION_TYPE>U</CLASSIFICATION_TYPE><NORAD_CAT_ID>33063</NORAD_CAT_ID><ELEMENT_SET_NO>999</ELEMENT_SET_NO><REV_AT_EPOCH>90878</REV_AT_EPOCH><BSTAR>.21236E-3</BSTAR><MEAN_MOTION_DOT>.139E-4</MEAN_MOTION_DOT><MEAN_MOTION_DDOT>0</MEAN_MOTION_DDOT></tleParameters></data></segment></body></omm>

</ndm>
