33060,ORBCOMM FM38,2008,97.22,-1.0,-,48.44,Inactive,0,LEO,Russia,ORBCOMM,Unknown,Unknown,Unknown,1 33060U 08031A   25131.17902513  .00001774  00000+0  25291-3 0  9994,2 33060  48.4378 131.5949 0005460 246.1805 113.8538 14.81181422909257,14.81181422,0.000546,LEO
33061,ORBCOMM FM41,2008,97.25,-1.0,-,48.44,Inactive,0,LEO,Russia,ORBCOMM,Unknown,Unknown,Unknown,1 33061U 08031B   25131.53647391  .00001710  00000+0  24709-3 0  9998,2 33061  48.4428 137.5448 0004570 234.0396 270.9183 14.80771415909242,14.80771415,0.000457,LEO
33062,ORBCOMM FM29,2008,97.24,-1.0,-,48.44,Inactive,0,LEO,Russia,ORBCOMM,Unknown,Unknown,Unknown,1 33062U 08031C   25130.78578230  .00001683  00000+0  24302-3 0  9998,2 33062  48.4380 148.9740 0006241 228.5157 301.8652 14.80866633908602,14.80866633,0.0006241,LEO
33063,ORBCOMM FM39,2008,97.33,-1.0,-,48.44,Inactive,0,LEO,Russia,ORBCOMM,Unknown,Unknown,Unknown,1 33063U 08031D   25131.49118018  .00001390  00000+0  21236-3 0  9990,2 33063  48.4394 169.4875 0006948 203.8042 156.2552 14.79445313908784,14.79445313,0.0006948,LEO
25983,ORBCOMM FM33,1999,100.0,-1.0,-,45.03,Inactive,0,LEO,Eastern Range Airspace,ORBCOMM,Unknown,Unknown,Unknown,1 25983U 99065D   25130.83632670  .00000923  00000+0  33550-3 0  9994,2 25983  45.0273 176.5265 0010453 240.2161 119.7650 14.39927289330684,14.39927289,0.0010453,LEO
25984,ORBCOMM FM36,1999,100.14,45.0,-,45.04,Inactive,1,LEO,Eastern Range Airspace,ORBCOMM,Commercial,Communications,Pegasus,1 25984U 99065E   25131.51658057  .00001356  00000+0  49059-3 0  9990,2 25984  45.0392 264.6665 0003514 144.3719 215.7365 14.38041295329730,14.38041295,0.0003514,LEO
25986,ORBCOMM FM34,1999,100.2,-1.0,-,45.04,Inactive,0,LEO,Eastern Range Airspace,ORBCOMM,Unknown,Unknown,Unknown,1 25986U 99065G   25130.67211662  .00001035  00000+0  39314-3 0  9992,2 25986  45.0392 273.8838 0004833 166.1016 193.9966 14.37053108329507,14.37053108,0.0004833,LEO
25985,ORBCOMM FM35,1999,100.21,45.0,-,45.04,Inactive,1,LEO,Eastern Range Airspace,ORBCOMM,Commercial,Communications,Pegasus,1 25985U 99065F   25130.70539009  .00001142  00000+0  42914-3 0  9992,2 25985  45.0398 273.2482 0004844 205.7386 154.3222 14.37022371329394,14.37022371,0.0004844,LEO
